[{"OBJECT_NAME":"ZORKIY-2M 1","OBJECT_ID":"2023-091M","EPOCH":"2026-03-09T22:53:51.179712","MEAN_MOTION":15.19525944,"ECCENTRICITY":0.00152901,"INCLINATION":97.5217,"RA_OF_ASC_NODE":128.2731,"ARG_OF_PERICENTER":102.639,"MEAN_ANOMALY":257.6555,"EPHEMERIS_TYPE":0,"CLASSIFICATION_TYPE":"U","NORAD_CAT_ID":57177,"ELEMENT_SET_NO":999,"REV_AT_EPOCH":14892,"BSTAR":0.00044833188,"MEAN_MOTION_DOT":9.489e-5,"MEAN_MOTION_DDOT":0},{"OBJECT_NAME":"STARLINK-6360","OBJECT_ID":"2023-094T","EPOCH":"2026-03-09T22:00:01.999584","MEAN_MOTION":15.13769428,"ECCENTRICITY":0.00016307,"INCLINATION":43.001,"RA_OF_ASC_NODE":28.4041,"ARG_OF_PERICENTER":254.8509,"MEAN_ANOMALY":53.5974,"EPHEMERIS_TYPE":0,"CLASSIFICATION_TYPE":"U","NORAD_CAT_ID":57235,"ELEMENT_SET_NO":999,"REV_AT_EPOCH":577,"BSTAR":0.0042750417,"MEAN_MOTION_DOT":0.0007914,"MEAN_MOTION_DDOT":0}]
